[{"OBJECT_NAME":"STARLINK-36239","OBJECT_ID":"2025-304E","EPOCH":"2026-03-09T17:06:07.156512","MEAN_MOTION":14.98335248,"ECCENTRICITY":0.00031849,"INCLINATION":70.002,"RA_OF_ASC_NODE":174.5831,"ARG_OF_PERICENTER":269.7486,"MEAN_ANOMALY":90.3309,"EPHEMERIS_TYPE":0,"CLASSIFICATION_TYPE":"U","NORAD_CAT_ID":67196,"ELEMENT_SET_NO":999,"REV_AT_EPOCH":1388,"BSTAR":0.00064826922,"MEAN_MOTION_DOT":7.652e-5,"MEAN_MOTION_DDOT":0},{"OBJECT_NAME":"COSMOS 2251 DEB","OBJECT_ID":"1993-036NZ","EPOCH":"2026-03-09T21:15:03.836448","MEAN_MOTION":14.91859868,"ECCENTRICITY":0.00323485,"INCLINATION":73.9961,"RA_OF_ASC_NODE":356.9153,"ARG_OF_PERICENTER":157.6141,"MEAN_ANOMALY":263.4728,"EPHEMERIS_TYPE":0,"CLASSIFICATION_TYPE":"U","NORAD_CAT_ID":34327,"ELEMENT_SET_NO":999,"REV_AT_EPOCH":90806,"BSTAR":0.0014341536,"MEAN_MOTION_DOT":0.00014628,"MEAN_MOTION_DDOT":0}]
